{
  "norad_id": 65742,
  "name": "STARLINK-35316",
  "history": [
    {
      "epoch": "2026-03-28T19:53:21.161760Z",
      "apogee_km": 475.9224442161758,
      "perigee_km": 474.322893409475,
      "latitude_deg": 2.1119629535142866e-05,
      "longitude_deg": 119.42698494120184,
      "height_km": 475.8116252387611,
      "semi_major_axis_km": 6853.259668812825,
      "eccentricity": 0.0001167,
      "inclination_deg": 53.159,
      "raan_deg": 244.0087,
      "arg_perigee_deg": 74.8351,
      "mean_anomaly_deg": 285.2779,
      "mean_motion_rev_day": 15.30230947
    },
    {
      "epoch": "2026-03-29T03:43:37.210656Z",
      "apogee_km": 476.0463774736327,
      "perigee_km": 474.2316299878439,
      "latitude_deg": 6.661990491309345e-05,
      "longitude_deg": 0.021261799689227538,
      "height_km": 475.88192351912875,
      "semi_major_axis_km": 6853.276003730738,
      "eccentricity": 0.0001324,
      "inclination_deg": 53.1596,
      "raan_deg": 242.4917,
      "arg_perigee_deg": 80.16,
      "mean_anomaly_deg": 279.9551,
      "mean_motion_rev_day": 15.30225476
    },
    {
      "epoch": "2026-03-30T03:14:25.225152Z",
      "apogee_km": 476.0719026106972,
      "perigee_km": 474.3804925735312,
      "latitude_deg": -5.7826559729900224e-05,
      "longitude_deg": 1.8043508140534947,
      "height_km": 476.00670763044656,
      "semi_major_axis_km": 6853.3631975921135,
      "eccentricity": 0.0001234,
      "inclination_deg": 53.1599,
      "raan_deg": 237.9406,
      "arg_perigee_deg": 82.0048,
      "mean_anomaly_deg": 278.1092,
      "mean_motion_rev_day": 15.30196273
    },
    {
      "epoch": "2026-03-30T03:14:25.226016Z",
      "apogee_km": 476.0717655434328,
      "perigee_km": 474.3806296407947,
      "latitude_deg": -5.599937110606911e-05,
      "longitude_deg": 1.8043485655358342,
      "height_km": 476.0067266946523,
      "semi_major_axis_km": 6853.3631975921135,
      "eccentricity": 0.00012338,
      "inclination_deg": 53.1599,
      "raan_deg": 237.9406,
      "arg_perigee_deg": 82.0048,
      "mean_anomaly_deg": 278.1092,
      "mean_motion_rev_day": 15.30196273
    },
    {
      "epoch": "2026-03-30T09:30:37.912896Z",
      "apogee_km": 476.01641685702543,
      "perigee_km": 474.32803559605236,
      "latitude_deg": 2.3374349653210672e-05,
      "longitude_deg": -93.72106158014033,
      "height_km": 476.03390247716925,
      "semi_major_axis_km": 6853.309226226539,
      "eccentricity": 0.00012318,
      "inclination_deg": 53.1576,
      "raan_deg": 236.7255,
      "arg_perigee_deg": 87.5425,
      "mean_anomaly_deg": 272.5717,
      "mean_motion_rev_day": 15.30214349
    }
  ]
}